satname,norad_id,inclination_deg,eccentricity,mean_motion_rev_per_day,perigee_km,apogee_km,l1,l2
STARLINK-1008,44714,53.1549,0.0001341,15.31005306,471.89291267992485,473.7303371011194,1 44714U 19074B   26029.58335647  .00088756  00000+0  29000-2 0  9997,2 44714  53.1549   0.6446 0001341 311.3162 293.0957 15.31005306  5830
STARLINK-1012,44718,53.1614,0.0001673,15.30195425,474.0821614921506,476.3752976652677,1 44718U 19074F   26029.23674882  .00004389  00000+0  16027-3 0  9996,2 44718  53.1614   2.0646 0001673  94.7426 265.3765 15.30195425342821
STARLINK-1017,44723,53.0465,0.0001629,15.20976612,501.7725984483159,504.01443819118504,1 44723U 19074L   26028.89156265  .00046615  00000+0  20785-2 0  9996,2 44723  53.0465 354.6034 0001629  96.4615 263.6566 15.20976612342900
STARLINK-1019,44724,53.0497,0.001099,15.69267582,353.5867748608889,368.39938277412875,1 44724U 19074M   26029.58335647  .00120866  00000+0  10031-2 0  9991,2 44724  53.0497 331.6669 0010990  63.7099 191.8668 15.69267582  5991
STARLINK-1020,44725,53.0537,0.0001408,15.06400978,546.2334718558368,548.1836491656768,1 44725U 19074N   26029.27460681  .00002191  00000+0  16594-3 0  9996,2 44725  53.0537  23.5593 0001408  85.4956 274.6194 15.06400978342523
STARLINK-1031,44736,53.0471,0.0007508,15.7465895,340.55367082942666,350.65003709253597,1 44736U 19074Z   26029.58335647  .00181145  00000+0  11886-2 0  9990,2 44736  53.0471 317.0105 0007508  96.6297 127.7863 15.74658950  6013
STARLINK-1036,44741,53.0544,0.0003034,15.47352067,422.4118319358986,426.5396573493472,1 44741U 19074AE  26029.58335647  .00114560  00000+0  21813-2 0  9994,2 44741  53.0544  16.6734 0003034  82.4364 286.2264 15.47352067  5855
STARLINK-1039,44744,53.0511,0.0004794,15.18282436,507.7286556783665,514.333990266432,1 44744U 19074AH  26029.29249757  .00066378  00000+0  31842-2 0  9997,2 44744  53.0511  35.6989 0004794  62.3292 297.8188 15.18282436342369
STARLINK-1042,44747,53.0454,0.0003837,15.47712274,420.8104749304539,426.029989950629,1 44747U 19074AL  26028.90211212  .00033181  00000+0  63639-3 0  9998,2 44747  53.0454 285.3804 0003837  79.0669 281.0770 15.47712274343901
STARLINK-1043,44748,53.0547,0.0002847,15.5086816,412.25626089037087,416.1238119048958,1 44748U 19074AM  26029.25506698  .00043255  00000+0  73954-3 0  9997,2 44748  53.0547  24.3684 0002847  22.4199 337.6933 15.50868160342528
STARLINK-1046,44751,53.055,0.0004787,15.39665239,443.8312143183475,450.3656947425152,1 44751U 19074AQ  26029.58335647  .00111928  00000+0  27623-2 0  9995,2 44751  53.0550  36.2354 0004787  49.0656 260.1868 15.39665239  5869
STARLINK-1047,44752,53.0727,0.0004884,15.3161054,467.661562035506,474.35180558585307,1 44752U 19074AR  26028.83433296  .00016550  00000+0  54528-3 0  9992,2 44752  53.0727 332.0539 0004884  91.6238 268.5322 15.31610540343235
STARLINK-1048,44753,53.0554,0.0004429,15.43330531,433.2697890018144,439.30600657627474,1 44753U 19074AS  26029.58335647  .00114268  00000+0  24957-2 0  9994,2 44753  53.0554 356.4059 0004429  83.9309 354.3253 15.43330531  5806
STARLINK-1053,44758,53.0329,0.0003045,15.7713652,336.5130962800322,340.60356373600644,1 44758U 19074AX  26029.58335647  .00230886  00000+0  13518-2 0  9995,2 44758  53.0329 280.7595 0003045 135.8603  76.7009 15.77136520  5973
STARLINK-1060,44765,53.0412,0.0001959,16.00467238,271.8208982394126,274.4268622522932,1 44765U 19074BE  26029.00002315  .00503809  12222-3  93976-3 0  9991,2 44765  53.0412 323.2590 0001959 147.6630 230.3157 16.00467238  5719
STARLINK-1063,44768,53.1554,0.0001567,15.29349387,476.68170517505496,478.83034204865544,1 44768U 19074BH  26029.58335647  .00028526  00000+0  99729-3 0  9991,2 44768  53.1554  41.0079 0001567  61.1136  68.3053 15.29349387  5788
STARLINK-1067,44771,53.0537,0.0005258,15.47204526,421.3311601287287,428.4852424624105,1 44771U 19074BL  26029.58335647  .00107034  00000+0  20504-2 0  9991,2 44771  53.0537  32.6164 0005258  69.4801  43.2316 15.47204526  5929
STARLINK-1068,44772,53.0527,0.0002777,15.54101677,402.88158929658584,406.6488131791548,1 44772U 19074BM  26029.58335647  .00136449  00000+0  20376-2 0  9991,2 44772  53.0527  10.0796 0002777  85.9167 285.6426 15.54101677  5881
STARLINK-1112,44925,53.0405,0.0002309,15.82229499,322.58961944025214,325.6847296540582,1 44925U 20001M   26029.58335647  .00350605  00000+0  16046-2 0  9994,2 44925  53.0405  81.4347 0002309 338.5999 129.5275 15.82229499  6020
STARLINK-1114,44927,53.0523,0.0003483,15.4352709,433.3361051499887,438.0826305298251,1 44927U 20001P   26029.52500098  .00121355  00000+0  26303-2 0  9999,2 44927  53.0523 156.4007 0003483 337.3067  22.7783 15.43527090334034
STARLINK-1123,44930,53.0539,0.000139,15.06398216,546.254401437166,548.1796498562944,1 44930U 20001S   26029.51234806 -.00000372  00000+0 -60558-5 0  9993,2 44930  53.0539 162.4927 0001390  78.6711 281.4434 15.06398216333940
STARLINK-1144,44933,53.0316,0.0007348,15.99582076,270.6882469915108,280.46654566835787,1 44933U 20001V   26029.58335647  .00531092  13366-3  10390-2 0  9993,2 44933  53.0316  51.6502 0007348  31.8280 137.1062 15.99582076  6059
STARLINK-1094,44941,53.1513,0.0001188,15.29179288,477.4498860883941,479.07896706734937,1 44941U 20001AD  26029.58335647  .00119787  00000+0  41192-2 0  9996,2 44941  53.1513 141.1934 0001188  83.4460  54.7172 15.29179288  5832
STARLINK-1122,44949,53.1523,0.0001077,15.29236731,477.35431071790026,478.8311426010232,1 44949U 20001AM  26029.58335647  .00073564  00000+0  25458-2 0  9993,2 44949  53.1523 141.1824 0001077 100.4986 282.8725 15.29236731  5788
STARLINK-1080,44961,53.053,0.0005664,15.42147288,435.911456071658,443.63478465600656,1 44961U 20001AZ  26029.46143296  .00099314  00000+0  22621-2 0  9991,2 44961  53.0530 114.8019 0005664 345.0743  15.0093 15.42147288334610
STARLINK-1090,44968,53.0544,0.0001351,15.06398659,546.2800527677509,548.1512830586225,1 44968U 20001BG  26029.48286031 -.00000911  00000+0 -42289-4 0  9996,2 44968  53.0544 122.6282 0001351  92.8002 267.3142 15.06398659334500
STARLINK-1132,45044,53.1595,0.0002152,15.37544704,451.90231051875526,454.84259218661646,1 45044U 20006A   26029.41659336  .00098716  00000+0  26171-2 0  9990,2 45044  53.1595  79.3685 0002152  62.8425 297.2798 15.37544704330877
STARLINK-1131,45047,53.1116,0.000149,15.19707597,505.6977600584578,507.74944851853434,1 45047U 20006D   26029.58335647  .01670290  00000+0  70804-1 0  9992,2 45047  53.1116 102.3634 0001490  63.9171 307.8334 15.19707597  5788
STARLINK-1134,45048,53.035,0.0005204,15.38273495,447.66056752323493,454.7685566290447,1 45048U 20006E   26029.33234689  .00099094  00000+0  25646-2 0  9991,2 45048  53.0350  64.7847 0005204  57.3542 302.7962 15.38273495331072
STARLINK-1156,45054,53.0857,0.0001332,15.14020365,523.0348930406153,524.8736101500408,1 45054U 20006L   26029.58335647  .00946907  00000+0  47503-1 0  9990,2 45054  53.0857 102.0673 0001332  84.9566 311.5501 15.14020365  5675
STARLINK-1159,45057,53.048,0.0004983,15.68454233,359.9634029229437,366.6819416323351,1 45057U 20006P   26029.58335647  .00201318  00000+0  17119-2 0  9994,2 45057  53.0480  69.7501 0004983 340.3184 164.2234 15.68454233  5949
STARLINK-1166,45060,53.0548,0.0001929,15.39798434,445.38834108756964,448.02136507448813,1 45060U 20006S   26029.51426221  .00082898  00000+0  20477-2 0  9991,2 45060  53.0548  98.6238 0001929  31.8478 328.2641 15.39798434330612
STARLINK-1169,45061,53.0885,0.000138,15.14525573,521.4669790242278,523.3715325508256,1 45061U 20006T   26029.58335647  .01125923  00000+0  55641-1 0  9998,2 45061  53.0885 102.0152 0001380  88.7974 156.7248 15.14525573  5830
STARLINK-1171,45062,53.0495,0.0005919,15.49229481,414.95564813702185,423.0020738932917,1 45062U 20006U   26029.58335647  .00201480  00000+0  35462-2 0  9991,2 45062  53.0495  78.1942 0005919 262.2653 346.3341 15.49229481  5943
STARLINK-1133,45064,53.1586,0.0001676,15.30037145,474.55266491379825,476.8500715348273,1 45064U 20006W   26029.47660654  .00201734  00000+0  66740-2 0  9995,2 45064  53.1586  79.9451 0001676  84.1727 275.9465 15.30037145330871
STARLINK-1167,45071,53.1607,0.0001769,15.29365998,476.4935819305465,478.9191793186128,1 45071U 20006AD  26029.41769109  .00002466  00000+0  97734-4 0  9992,2 45071  53.1607  80.0353 0001769  53.3224 306.7938 15.29365998330865
STARLINK-1168,45072,53.1602,0.0001352,15.29355371,476.81122564017187,478.6650542780162,1 45072U 20006AE  26029.42749359  .00001891  00000+0  77835-4 0  9990,2 45072  53.1602  80.0502 0001352  85.7184 274.3971 15.29355371330860
STARLINK-1172,45074,53.1601,0.000143,15.30188319,474.26991266825826,476.2299813351001,1 45074U 20006AG  26029.45341285 -.00000163  00000+0  66190-5 0  9996,2 45074  53.1601  80.0760 0001430  83.5328 276.5835 15.30188319330861
STARLINK-1153,45080,53.162,0.0001355,15.29355981,476.8073460984151,478.6652877673041,1 45080U 20006AN  26029.40210618  .00000905  00000+0  43684-4 0  9998,2 45080  53.1620  80.0240 0001355  92.3648 267.7508 15.29355981330869
STARLINK-1151,45081,53.052,0.000954,15.50929917,407.5300165892213,420.489432539689,1 45081U 20006AP  26029.58335647  .00172867  00000+0  28739-2 0  9997,2 45081  53.0520  69.3505 0009540   7.2355 244.2051 15.50929917  5947
STARLINK-1185,45087,53.0537,0.000138,15.06376646,546.3274275307194,548.2388434881195,1 45087U 20006AV  26029.39995493  .00008822  00000+0  61081-3 0  9990,2 45087  53.0537  62.9983 0001380  77.9667 282.1477 15.06376646331103
STARLINK-1183,45088,53.0532,0.0001705,15.06405423,546.01416817889,548.3757063695002,1 45088U 20006AW  26029.35570409  .00009524  00000+0  65733-3 0  9991,2 45088  53.0532  63.1995 0001705  90.9037 269.2148 15.06405423331097
STARLINK-1152,45096,53.0417,0.0005309,15.33578514,461.51286064643955,468.77905849291074,1 45096U 20006BE  26029.29579464  .00087150  00000+0  26270-2 0  9996,2 45096  53.0417  31.5789 0005309  64.4899 295.6650 15.33578514331536
